SAT-3    
1 10002S 11080A   23052.42576006 -.00000072  00000+0  22001-1 0  9999
2 10002  74.0042 126.5468 0200436  18.3210 210.3324 12.62267363515735

